[{"OBJECT_NAME":"STARLINK-4016","OBJECT_ID":"2022-052F","EPOCH":"2026-03-09T20:21:18.095040","MEAN_MOTION":15.08838271,"ECCENTRICITY":0.00012483,"INCLINATION":53.2166,"RA_OF_ASC_NODE":278.4217,"ARG_OF_PERICENTER":92.9844,"MEAN_ANOMALY":267.1291,"EPHEMERIS_TYPE":0,"CLASSIFICATION_TYPE":"U","NORAD_CAT_ID":52603,"ELEMENT_SET_NO":999,"REV_AT_EPOCH":21168,"BSTAR":-1.3735737e-5,"MEAN_MOTION_DOT":-5.06e-6,"MEAN_MOTION_DDOT":0},{"OBJECT_NAME":"STARLING 3","OBJECT_ID":"2023-100D","EPOCH":"2026-03-09T22:41:57.048288","MEAN_MOTION":15.11145977,"ECCENTRICITY":0.00066311,"INCLINATION":99.5096,"RA_OF_ASC_NODE":65.6477,"ARG_OF_PERICENTER":76.1122,"MEAN_ANOMALY":284.0839,"EPHEMERIS_TYPE":0,"CLASSIFICATION_TYPE":"U","NORAD_CAT_ID":57389,"ELEMENT_SET_NO":999,"REV_AT_EPOCH":14507,"BSTAR":0.00051487914,"MEAN_MOTION_DOT":8.551e-5,"MEAN_MOTION_DDOT":0}]
